HORYU-4                 
1 41340U 16012D   20140.44798744  .00000328  00000-0  18048-4 0  9994
2 41340  31.0038 156.5003 0013911 220.8740 139.0852 15.01487161233513
E-ST@R-II               
1 41459U 16025D   20140.50045509  .00000926  00000-0  51081-4 0  9998
2 41459  98.1000 248.9860 0163716 309.2937  49.3868 15.06356315223085
AAUSAT 4                
1 41460U 16025E   20140.54884223  .00000955  00000-0  51098-4 0  9998
2 41460  98.0969 251.2649 0152605 298.3533  60.2386 15.08625075223280
BEESAT-4                
1 41619U 16040W   20140.40383979  .00001050  00000-0  46296-4 0  9999
2 41619  97.3214 200.6228 0009327 284.0692  75.9508 15.23944268204971
CANX-7                  
1 41788U 16059F   20140.19443423  .00005250  00000-0  72956-3 0  9990
2 41788  98.2525 227.2957 0025785  40.4640 319.8514 14.78086181195493
RAVAN                   
1 41849U 16067B   20140.56334538  .00000220  00000-0  23524-4 0  9994
2 41849  97.9291 249.9293 0007815 344.8024  15.2962 14.98531426192290
CELTEE 1                
1 41850U 16067C   20140.53208658 -.00000175  00000-0 -98670-5 0  9992
2 41850  97.9251 247.7100 0008640 355.8596   4.2552 14.97175636192170
OPTICUBE 04             
1 41851U 16067D   20140.52432904  .00000239  00000-0  26149-4 0  9995
2 41851  97.9239 247.3369 0008685 358.4353   1.6840 14.96921101192153
AEROCUBE 8D             
1 41852U 16067E   20140.54008318 -.00000383  00000-0 -28023-4 0  9991
2 41852  97.9241 247.1872 0009500 355.4845   4.6289 14.96897727192138
AEROCUBE 8C             
1 41853U 16067F   20140.30360944  .00000544  00000-0  52743-4 0  9995
2 41853  97.9235 246.8544 0009544 358.2739   1.8448 14.96859680192092
PROMETHEUS 2-1          
1 41854U 16067G   20140.34617143 -.00000150  00000-0 -77172-5 0  9995
2 41854  97.9244 247.2085 0010091 355.0584   5.0536 14.97172398192112
PROMETHEUS 2-3          
1 41855U 16067H   20140.54729958 -.00000110  00000-0 -42141-5 0  9990
2 41855  97.9247 247.4436 0010244 354.5502   5.5606 14.97182478192148
INS-1B                  
1 41954U 17008G   20140.33969009  .00001020  00000-0  44038-4 0  9991
2 41954  97.3558 205.2593 0010298  51.7025 308.5137 15.24718234180933
BGUSAT                  
1 41999U 17008BD  20140.45152898  .00001841  00000-0  71301-4 0  9997
2 41999  97.3669 209.3525 0009406  60.9364 299.2816 15.27398558180523
DIDO-2                  
1 42000U 17008BE  20140.42818722  .00000628  00000-0  28425-4 0  9994
2 42000  97.3566 205.8624 0010025  67.8182 292.4119 15.24435115180346
PEASSS                  
1 42015U 17008BV  20140.49269409  .00000951  00000-0  40275-4 0  9995
2 42015  97.3589 207.4678 0007929  72.1057 288.1045 15.25558861180933
AL-FARABI 1             
1 42016U 17008BW  20140.46412009  .00001246  00000-0  50643-4 0  9997
2 42016  97.3617 208.4367 0007803  71.8261 288.3827 15.26384637181105
NAYIF-1 (EO-88)         
1 42017U 17008BX  20140.44360747  .00001209  00000-0  49158-4 0  9995
2 42017  97.3612 208.4274 0007860  71.3837 288.8255 15.26424649181125
UCLSAT                  
1 42765U 17036A   20140.58614998  .00000980  00000-0  43937-4 0  9995
2 42765  97.3031 195.6001 0012851 123.4697 236.7771 15.23468230162185
LITUANICASAT-2          
1 42768U 17036D   20140.57326358  .00001788  00000-0  76538-4 0  9997
2 42768  97.3085 195.5158 0016409 115.4418 244.8519 15.23971601161443
AALTO-1                 
1 42775U 17036L   20140.58718778  .00000655  00000-0  31775-4 0  9993
2 42775  97.3007 193.4998 0015435 117.9806 242.2995 15.21802636161281
URSA MAIOR              
1 42776U 17036M   20140.57992894  .00000728  00000-0  34813-4 0  9993
2 42776  97.3019 193.7649 0015254 117.7481 242.5305 15.21981652161292
COMPASS 2               
1 42777U 17036N   20140.39596825  .00001422  00000-0  61719-4 0  9995
2 42777  97.3075 195.7724 0013944 116.5610 243.7059 15.23842894161370
DIAMOND RED             
1 42783U 17036U   20140.56772964  .00000839  00000-0  38774-4 0  9997
2 42783  97.3030 194.8797 0013507 125.5011 234.7488 15.22786709161353
PEGASUS                 
1 42784U 17036V   20140.40849654  .00000921  00000-0  41832-4 0  9993
2 42784  97.3035 195.1282 0013361 125.0729 235.1764 15.23158925161357
DIAMOND GREEN           
1 42785U 17036W   20140.43510913  .00000837  00000-0  38703-4 0  9999
2 42785  97.3033 194.7853 0013391 126.4593 233.7880 15.22786334161401
DIAMOND BLUE            
1 42786U 17036X   20140.43431330  .00000834  00000-0  38563-4 0  9996
2 42786  97.3033 194.7801 0013231 126.5907 233.6549 15.22786692161406
NUDTSAT                 
1 42787U 17036Y   20140.62142182  .00001547  00000-0  65793-4 0  9999
2 42787  97.3077 196.6628 0011709 115.9096 244.3348 15.24442866161301
SUCHAI                  
1 42788U 17036Z   20140.57447121  .00001140  00000-0  50270-4 0  9998
2 42788  97.3043 195.8514 0012952 122.9597 237.2887 15.23698770161489
SKCUBE                  
1 42789U 17036AA  20140.42056087  .00001044  00000-0  46513-4 0  9998
2 42789  97.3038 195.5629 0012816 123.7245 236.5216 15.23544802161378
VZLUSAT-1               
1 42790U 17036AB  20140.41326407  .00001390  00000-0  59435-4 0  9996
2 42790  97.3062 196.4574 0012387 121.7368 238.5079 15.24428765161428
ROBUSTA-1B              
1 42792U 17036AD  20140.57493812  .00001095  00000-0  48390-4 0  9990
2 42792  97.3041 195.9556 0012403 123.3471 236.8955 15.23731676161424
CICERO 6                
1 42793U 17036AE  20140.41835587  .00000732  00000-0  33909-4 0  9990
2 42793  97.3017 195.2475 0011650 125.8517 234.3804 15.23098783161445
D-SAT                   
1 42794U 17036AF  20140.32174637  .00000249  00000-0  26569-4 0  9990
2 42794  97.4958 174.4173 0127814 102.1451 259.4120 14.91266289158357
CORVUS BC2              
1 42846U 17042X   20140.40331123 -.00000003  00000-0  49246-5 0  9996
2 42846  97.5271  25.2654 0010228  24.0800 336.0896 14.92097029155074
CORVUS BC1              
1 42847U 17042Y   20140.33391705 -.00000035  00000-0  17548-5 0  9996
2 42847  97.5273  25.3633 0009870  23.8688 336.2988 14.92198309155063
MIRATA                  
1 43015U 17073C   20140.46067985  .00000539  00000-0  46667-4 0  9993
2 43015  97.7205  53.7796 0254180 142.8837 219.0258 14.79597107134932
MAKERSAT 0              
1 43016U 17073D   20140.48124194  .00000365  00000-0  33362-4 0  9997
2 43016  97.7241  53.9852 0256934 143.8129 218.0776 14.79178695134922
DELLINGR (RBLE)         
1 43021U 98067NJ  20140.41544298  .00011088  00000-0  94826-4 0  9995
2 43021  51.6364  68.1556 0000939  10.4118 349.6899 15.70039627142302
AEROCUBE 7B (OCSD B)    
1 43042U 17071F   20140.49057665  .00002249  00000-0  58702-4 0  9991
2 43042  51.6373 208.6625 0004207 305.0304  55.0287 15.43429741137904
AEROCUBE 7C (OCSD C)    
1 43043U 17071G   20140.55821963  .00002275  00000-0  59313-4 0  9997
2 43043  51.6374 208.3792 0004456 309.5191  50.5401 15.43404565137889
CHEFSAT                 
1 43044U 17071H   20140.57016448  .00005021  00000-0  10268-3 0  9991
2 43044  51.6375 194.4691 0004460 317.6485  42.4159 15.47994302138074
ASGARDIA 1              
1 43049U 17071N   20140.48775864  .00002192  00000-0  57377-4 0  9999
2 43049  51.6385 207.9784 0002246 331.1997  28.8865 15.43457552137889
ISARA                   
1 43050U 17071P   20140.53392967  .00004006  00000-0  86266-4 0  9991
2 43050  51.6356 197.1138 0002382 333.9217  26.1650 15.47063529138030
PROPCUBE 2 (FAUNA)      
1 43052U 17071R   20140.54706417  .00002369  00000-0  60405-4 0  9990
2 43052  51.6379 206.1425 0002213 328.5679  31.5175 15.43897055137904
CORVUS BC3              
1 43118U 18004H   20140.45897431  .00000637  00000-0  29783-4 0  9997
2 43118  97.4450 210.9664 0011244 146.8409 213.3534 15.23326170130588
MICROMAS-2A             
1 43131U 18004W   20140.45357968  .00001494  00000-0  62358-4 0  9995
2 43131  97.4496 212.5903 0010196 145.1797 215.0110 15.25197455130677
SPACEBEE-4              
1 43139U 18004AE  20140.51157913  .00002444  00000-0  96524-4 0  9996
2 43139  97.4531 213.7600 0009670 145.1804 215.0069 15.26445139130743
SPACEBEE-3              
1 43140U 18004AF  20140.47271604  .00002891  00000-0  11077-3 0  9992
2 43140  97.4546 214.3616 0009459 143.7451 216.4431 15.27309603130779
SPACEBEE-2              
1 43141U 18004AG  20140.45798357  .00003135  00000-0  11884-3 0  9998
2 43141  97.4559 214.5873 0009473 143.1920 216.9971 15.27604664130782
SPACEBEE-1              
1 43142U 18004AH  20140.43238018  .00003329  00000-0  12474-3 0  9991
2 43142  97.4563 214.8050 0009439 143.1856 217.0033 15.27946742130785
CICERO 7                
1 43143U 18004AJ  20140.45552990  .00001277  00000-0  53672-4 0  9998
2 43143  97.4476 212.7805 0008180 151.6785 208.4899 15.25249889130691
GOMX-4B                 
1 43196U 18015E   20140.59729587  .00000333  00000-0  16585-4 0  9995
2 43196  97.4319 269.3604 0018267 201.4071 158.6404 15.24234000127501
GOMX-4A                 
1 43197U 18015F   20140.55878650  .00000509  00000-0  23615-4 0  9995
2 43197  97.4322 269.4019 0018538 202.0884 221.2211 15.24465120127510
1KUNS-PF                
1 43466U 98067NP  20140.43503031  .00221560  31907-4  40701-3 0  9994
2 43466  51.6251  44.5366 0003144 175.4016 184.7024 16.00818550115871
UBAKUSAT                
1 43467U 98067NQ  20140.28810280  .00021426  00000-0  15091-3 0  9994
2 43467  51.6325  71.6877 0000851  76.4290 283.6804 15.74043846115512
CUBERRT                 
1 43546U 98067NU  20140.28709241  .00009126  00000-0  71443-4 0  9993
2 43546  51.6346  70.9619 0003071   3.5190 356.5829 15.72460154105650
TEMPEST-D               
1 43547U 98067NV  20140.37253728  .00005154  00000-0  63376-4 0  9991
2 43547  51.6363  98.6587 0004426 316.9057  43.1590 15.62184791104976
RAINCUBE                
1 43548U 98067NW  20140.55984906  .00023290  00000-0  17217-3 0  9994
2 43548  51.6331  78.0036 0003636   6.3496 353.7548 15.72843914105718
